     2              NAVIGATION DATA                         RINEX VERSION / TYPE
CCRINEXN V1.6.0 UX  CDDIS               16-SEP-18 10:26     PGM / RUN BY / DATE 
IGS BROADCAST EPHEMERIS FILE                                COMMENT             
    0.7451D-08  0.1490D-07 -0.5960D-07 -0.1192D-06          ION ALPHA           
    0.7987D+05  0.1638D+05 -0.1311D+06 -0.1311D+06          ION BETA            
   -0.186264514923D-08-0.355271367880D-14   233472     2019 DELTA-UTC: A0,A1,T,W
    18                                                      LEAP SECONDS        
                                                            END OF HEADER       
 9 18  9 16  3 30  0.0 0.506237847731D-03-0.207478478842D-11 0.000000000000D+00
    0.420000000000D+02 0.177343750000D+01 0.490198990184D-08-0.135814272853D+01
    0.931322574615D-07 0.102133682230D-02 0.875163823366D-05 0.515354168551D+04
    0.126000000000D+05 0.186264514923D-07-0.267509613615D+01 0.931322574616D-08
    0.952899912083D+00 0.209238281250D+03 0.173899743883D+01-0.809778080396D-08
   -0.154113562306D-09 0.100000000000D+01 0.201900000000D+04 0.000000000000D+00
   -0.100000000000D+01 0.000000000000D+00 0.931322574616D-09 0.420000000000D+02
    0.721200000000D+04 0.400000000000D+01 0.000000000000D+00 0.000000000000D+00
10 18  9 16  3 30  0.0 0.181642273674D-03-0.236610731008D-11 0.000000000000D+00
    0.420000000000D+02-0.129882812500D+02 0.469430267941D-08 0.335040060083D+00
   -0.648200511932D-06 0.378456217004D-02 0.696629285812D-05 0.515366124465D+04
    0.126000000000D+05 0.558793544769D-07 0.257180870037D+01 0.381842255592D-07
    0.961823734311D+00 0.246875000000D+03-0.280128178086D+01-0.816635508892D-08
    0.184293390845D-09 0.100000000000D+01 0.201900000000D+04 0.000000000000D+00
   -0.100000000000D+01 0.000000000000D+00 0.186264514923D-08 0.420000000000D+02
    0.721200000000D+04 0.400000000000D+01 0.000000000000D+00 0.000000000000D+00
12 18  9 16  3 30  0.0 0.306623755023D-03-0.272493139164D-11 0.000000000000D+00
    0.420000000000D+02 0.209218750000D+02 0.411392136134D-08 0.109328085144D+01
    0.101048499346D-05 0.702866242500D-02 0.516790896654D-05 0.515377545205D+04
    0.126000000000D+05-0.949949026108D-07-0.502528683468D+00 0.922009348869D-07
    0.985651362896D+00 0.291300781250D+03 0.102415767815D+01-0.810206669677D-08
   -0.163578242262D-09 0.100000000000D+01 0.201900000000D+04 0.000000000000D+00
   -0.100000000000D+01 0.000000000000D+00-0.125728547573D-07 0.420000000000D+02
    0.793200000000D+04 0.400000000000D+01 0.000000000000D+00 0.000000000000D+00
15 18  9 16  3 30  0.0-0.345773762092D-03 0.102673425317D-11 0.000000000000D+00
    0.420000000000D+02-0.469531250000D+01 0.537433100532D-08-0.269310232947D+01
   -0.366009771824D-06 0.107134715072D-01 0.814162194729D-05 0.515356178732D+04
    0.126000000000D+05 0.316649675369D-07-0.274862322317D+01-0.203959643841D-06
    0.928463869036D+00 0.203160156250D+03 0.701254162005D+00-0.827189519938D-08
   -0.741102298457D-10 0.100000000000D+01 0.201900000000D+04 0.000000000000D+00
   -0.100000000000D+01 0.000000000000D+00-0.107102096081D-07 0.420000000000D+02
    0.730800000000D+04 0.400000000000D+01 0.000000000000D+00 0.000000000000D+00
17 18  9 16  3 30  0.0-0.552808633074D-04 0.445510295322D-11 0.000000000000D+00
    0.420000000000D+02-0.532343750000D+02 0.393516391537D-08-0.177804403607D+01
   -0.273715704680D-05 0.125636212179D-01 0.631436705589D-05 0.515361400102D+04
    0.126000000000D+05 0.298954546452D-06 0.530713905404D+00 0.139698386192D-06
    0.983387272610D+00 0.271339843750D+03-0.177552167930D+01-0.777098147717D-08
   -0.191257966662D-09 0.100000000000D+01 0.201900000000D+04 0.000000000000D+00
   -0.100000000000D+01 0.000000000000D+00-0.111758708954D-07 0.420000000000D+02
    0.726000000000D+04 0.400000000000D+01 0.000000000000D+00 0.000000000000D+00
24 18  9 16  3 30  0.0-0.554406724404D-04-0.525801624462D-12 0.000000000000D+00
    0.420000000000D+02 0.504882812500D+02 0.498860065238D-08 0.268830168480D+01
    0.258255749941D-05 0.724991038442D-02 0.813324004412D-05 0.515363269103D+04
    0.126000000000D+05-0.800937414169D-07-0.165931825756D+01-0.894069671631D-07
    0.940386717213D+00 0.211488281250D+03 0.532894603508D+00-0.813331799851D-08
    0.642883921553D-11 0.100000000000D+01 0.201900000000D+04 0.000000000000D+00
   -0.100000000000D+01 0.000000000000D+00 0.279396772385D-08 0.420000000000D+02
    0.721200000000D+04 0.400000000000D+01 0.000000000000D+00 0.000000000000D+00
25 18  9 16  3 30  0.0-0.647656852379D-03-0.568434188608D-11 0.000000000000D+00
    0.420000000000D+02 0.171757812500D+02 0.444839957941D-08 0.669611786693D+00
    0.928528606892D-06 0.746326224180D-02 0.478047877550D-05 0.515359531321D+04
    0.126000000000D+05-0.121071934700D-07-0.563656719799D+00 0.856816768646D-07
    0.973183389749D+00 0.292164062500D+03 0.862961908067D+00-0.829903918718D-08
   -0.188757862523D-09 0.100000000000D+01 0.201900000000D+04 0.000000000000D+00
   -0.100000000000D+01 0.000000000000D+00 0.558793544769D-08 0.420000000000D+02
    0.139260000000D+05 0.400000000000D+01 0.000000000000D+00 0.000000000000D+00
26 18  9 16  3 30  0.0-0.190135615412D-04 0.115569775971D-10 0.000000000000D+00
    0.420000000000D+02 0.197109375000D+02 0.483734435195D-08 0.143570193669D+00
    0.111106783152D-05 0.292220362462D-02 0.410154461861D-05 0.515372089149D+04
    0.126000000000D+05 0.679865479469D-07-0.587609245015D+00-0.232830643654D-07
    0.954627888243D+00 0.297070312500D+03 0.613665856046D-01-0.842708023489D-08
   -0.148041880824D-09 0.100000000000D+01 0.201900000000D+04 0.000000000000D+00
   -0.100000000000D+01 0.000000000000D+00 0.745058059692D-08 0.420000000000D+02
    0.721200000000D+04 0.400000000000D+01 0.000000000000D+00 0.000000000000D+00
27 18  9 16  3 30  0.0 0.344510335708D-03-0.374811293114D-11 0.000000000000D+00
    0.420000000000D+02-0.564023437500D+02 0.397409410840D-08-0.177061617046D+01
   -0.288709998131D-05 0.603038840927D-02 0.711251050234D-05 0.515369770999D+04
    0.126000000000D+05-0.372529029846D-08 0.476038894348D+00-0.493600964546D-07
    0.978063570354D+00 0.251203125000D+03 0.454859184791D+00-0.788812921398D-08
   -0.125898101304D-09 0.100000000000D+01 0.201900000000D+04 0.000000000000D+00
   -0.100000000000D+01 0.000000000000D+00 0.186264514923D-08 0.420000000000D+02
    0.721200000000D+04 0.400000000000D+01 0.000000000000D+00 0.000000000000D+00
30 18  9 16  3 30  0.0 0.234394392464D-04-0.522604182152D-11 0.000000000000D+00
    0.420000000000D+02 0.648593750000D+02 0.501556606132D-08 0.165363069320D+01
    0.338908284903D-05 0.361556990538D-02 0.867340713739D-05 0.515369497416D+04
    0.126000000000D+05 0.279396772385D-07-0.156568466793D+01 0.689178705216D-07
    0.942835766426D+00 0.201609375000D+03-0.297380073364D+01-0.833546927607D-08
   -0.607168148133D-10 0.100000000000D+01 0.201900000000D+04 0.000000000000D+00
   -0.100000000000D+01 0.000000000000D+00 0.372529029846D-08 0.420000000000D+02
    0.721200000000D+04 0.400000000000D+01 0.000000000000D+00 0.000000000000D+00
31 18  9 16  3 30  0.0 0.932846742216D-04-0.261479726760D-11 0.000000000000D+00
    0.420000000000D+02 0.725625000000D+02 0.460769192886D-08 0.146799024300D+01
    0.387150794268D-05 0.889289419865D-02 0.769924372435D-05 0.515374275481D+04
    0.126000000000D+05 0.698491930962D-07-0.158465370200D+01 0.828877091408D-07
    0.961897272277D+00 0.230386718750D+03-0.112325165194D+00-0.808028007498D-08
   -0.176971657294D-09 0.100000000000D+01 0.201900000000D+04 0.000000000000D+00
   -0.100000000000D+01 0.000000000000D+00-0.135041773319D-07 0.420000000000D+02
    0.855600000000D+04 0.400000000000D+01 0.000000000000D+00 0.000000000000D+00
32 18  9 16  3 30  0.0-0.422389071900D-03 0.112017062293D-10 0.000000000000D+00
    0.420000000000D+02 0.667578125000D+01 0.473591155544D-08-0.103903389900D+01
    0.363215804100D-06 0.229990220396D-02 0.869855284691D-05 0.515370486693D+04
    0.126000000000D+05 0.298023223877D-07-0.266958966349D+01 0.707805156708D-07
    0.957238984160D+00 0.210753906250D+03-0.254353775583D+01-0.804117130309D-08
   -0.127683889975D-09 0.100000000000D+01 0.201900000000D+04 0.000000000000D+00
   -0.100000000000D+01 0.000000000000D+00 0.465661287308D-09 0.420000000000D+02
    0.100920000000D+05 0.400000000000D+01 0.000000000000D+00 0.000000000000D+00
 3 18  9 16  3 59 44.0 0.136815942824D-03 0.511590769747D-11 0.000000000000D+00
    0.300000000000D+02-0.113437500000D+02 0.463304994369D-08 0.153190306385D+01
   -0.702217221260D-06 0.173210864887D-02 0.705197453499D-05 0.515367470360D+04
    0.143840000000D+05 0.000000000000D+00 0.257518183105D+01 0.111758708954D-07
    0.961756368396D+00 0.241187500000D+03 0.630674708625D+00-0.808819411446D-08
    0.173221506583D-09 0.100000000000D+01 0.201900000000D+04 0.000000000000D+00
    0.200000000000D+01 0.000000000000D+00 0.186264514923D-08 0.300000000000D+02
    0.120000000000D+05 0.000000000000D+00 0.000000000000D+00 0.000000000000D+00
 7 18  9 16  3 59 44.0 0.123369041830D-03-0.670752342558D-11 0.000000000000D+00
    0.400000000000D+01 0.732500000000D+02 0.471591072233D-08 0.193406357701D+01
    0.376440584660D-05 0.120807723142D-01 0.915303826332D-05 0.515364653397D+04
    0.143840000000D+05-0.329688191414D-06-0.159765696126D+01-0.372529029846D-08
    0.957277906559D+00 0.203906250000D+03-0.249090359595D+01-0.813391023858D-08
   -0.232152527228D-10 0.100000000000D+01 0.201900000000D+04 0.000000000000D+00
    0.200000000000D+01 0.000000000000D+00-0.111758708954D-07 0.400000000000D+01
    0.140100000000D+05 0.000000000000D+00 0.000000000000D+00 0.000000000000D+00
